STARLINK-1285_new
1 15410C 20019BC  21326.15384232  .00441459  00000-0  27073-2 0  3260
2 15410  53.0548 272.5979 0001542 265.4992  46.9202 15.76154614    15
STARLINK-1285_old
1 25410C 20019BC  21325.12262817  .01270371  00000-0  84743-2 0  3250
2 25410  53.0549 277.7313 0003671 318.2564 264.9016 15.73408670    18
